OBJECT_NAME,OBJECT_ID,EPOCH,MEAN_MOTION,ECCENTRICITY,INCLINATION,RA_OF_ASC_NODE,ARG_OF_PERICENTER,MEAN_ANOMALY,EPHEMERIS_TYPE,CLASSIFICATION_TYPE,NORAD_CAT_ID,ELEMENT_SET_NO,REV_AT_EPOCH,BSTAR,MEAN_MOTION_DOT,MEAN_MOTION_DDOT
DMSP 5D-3 F16 (USA 172),2003-048A,2026-06-26T17:24:38.409984,14.14483680,.000809,98.9887,201.6168,116.2924,2.9113,0,U,28054,999,17083,.33556E-4,.19E-6,0
METEOSAT-9 (MSG-2),2005-049B,2026-06-26T17:54:10.772064,1.00277588,.000199,9.3825,54.0746,356.9761,178.0964,0,U,28912,999,709,0,.126E-5,0
DMSP 5D-3 F17 (USA 191),2006-050A,2026-06-26T17:10:38.018784,14.14994015,.0010797,98.7378,184.0908,34.4817,325.7055,0,U,29522,999,1377,.44338E-4,.43E-6,0
FENGYUN 3A,2008-026A,2026-06-26T16:53:08.643264,14.19573029,.0009867,98.6884,118.3589,99.1616,261.0677,0,U,32958,999,93675,.48929E-4,.6E-6,0
GOES 14,2009-033A,2026-06-26T16:37:24.278304,1.00108319,.0002247,1.7147,82.9383,18.8457,198.6659,0,U,35491,999,668,0,-.313E-5,0
DMSP 5D-3 F18 (USA 210),2009-057A,2026-06-26T16:30:18.894816,14.14901861,.0010192,98.9041,158.4363,219.6637,140.3792,0,U,35951,999,86093,.13565E-3,.217E-5,0
EWS-G2 (GOES 15),2010-008A,2026-06-26T16:16:39.955872,1.00268061,.0005325,1.3034,82.7227,43.0608,96.7372,0,U,36411,999,5973,0,.31E-6,0
COMS 1,2010-032A,2026-06-26T17:51:18.549216,0.99166612,.0011925,4.8292,75.2461,12.8575,129.9246,0,U,36744,999,5118,0,.45E-6,0
FENGYUN 3B,2010-059A,2026-06-26T17:15:11.168064,14.14843168,.002243,98.9620,223.7740,157.0638,312.5589,0,U,37214,999,80877,.13917E-3,.224E-5,0
SUOMI NPP,2011-061A,2026-06-26T13:46:51.944448,14.19519172,.0000994,98.7954,118.3862,339.6843,20.4293,0,U,37849,999,75977,.45500726E-4,.52E-6,0
METEOSAT-10 (MSG-3),2012-035B,2026-06-26T07:25:20.337024,1.00268518,.0001742,4.6930,60.9813,8.4001,316.5762,0,U,38552,999,5094,0,0,0
METOP-B,2012-049A,2026-06-26T16:37:04.452096,14.21441705,.000164,98.6500,229.0018,351.4215,8.6934,0,U,38771,999,71461,.58999E-4,.86E-6,0
INSAT-3D,2013-038B,2026-06-26T16:35:24.470016,1.00271905,.0001147,1.9505,82.4325,1.8439,208.9084,0,U,39216,999,4717,0,-.329E-5,0
FENGYUN 3C,2013-052A,2026-06-26T17:25:32.892096,14.15757085,.0014682,98.4983,151.1630,0.9101,359.2098,0,U,39260,999,65991,.53872E-4,.64E-6,0
METEOR-M 2,2014-037A,2026-06-26T18:56:12.166944,14.21463000,.0006308,98.5112,153.1870,20.2423,339.9004,0,U,40069,999,62068,-.18585E-4,-.83E-6,0
HIMAWARI-8,2014-060A,2026-06-26T14:56:01.905792,1.00278383,.00012162,0.0134,311.9313,127.0673,200.4040,0,U,40267,999,4285,0,-.263E-5,0
FENGYUN 2G,2014-090A,2026-06-26T14:44:20.970240,1.00269217,.0003629,5.6624,72.7076,150.3017,12.4626,0,U,40367,999,4209,0,-.296E-5,0
METEOSAT-11 (MSG-4),2015-034A,2026-06-26T16:01:13.359936,1.00266035,.0002249,3.2243,71.0507,347.7124,105.7615,0,U,40732,999,731,0,.7E-6,0
ELEKTRO-L 2,2015-074A,2026-06-25T22:47:48.794784,1.00271163,.00007276,6.7170,70.4166,286.6211,244.4527,0,U,41105,999,3859,0,-.113E-5,0
SENTINEL-3A,2016-011A,2026-06-26T18:06:05.567040,14.26735047,.0001437,98.6246,245.0004,96.8596,263.2748,0,U,41335,999,53942,.53149E-4,.85E-6,0
INSAT-3DR,2016-054A,2026-06-26T16:19:32.181312,1.00272412,.0010056,0.1299,86.1996,186.8884,320.5680,0,U,41752,999,3591,0,-.66E-6,0
HIMAWARI-9,2016-064A,2026-06-26T14:56:01.905792,1.00271130,.00011488,0.0175,42.6681,69.6993,167.1449,0,U,41836,999,3530,0,-.264E-5,0
GOES 16,2016-071A,2026-06-26T13:45:56.860128,1.00272069,.00005629,0.3649,85.5362,6.0774,284.8738,0,U,41866,999,3519,0,-.8E-6,0
FENGYUN 4A,2016-077A,2026-06-26T13:08:30.580224,1.00264621,.00082293,2.3469,80.1884,152.1316,3.0696,0,U,41882,999,3502,0,-.348E-5,0
CYGFM05,2016-078A,2026-06-26T11:27:19.110528,15.57045201,.00080737,34.9552,199.0543,235.8683,124.1276,0,U,41884,999,53020,.27678895E-3,.20719E-3,0
CYGFM04,2016-078B,2026-06-26T08:30:59.370048,15.61992878,.00072867,34.9304,167.0897,271.4419,88.5471,0,U,41885,999,53043,.35162629E-3,.31863E-3,0
CYGFM02,2016-078C,2026-06-26T08:06:23.194944,15.65065545,.00082739,34.9385,161.4685,273.4268,86.5512,0,U,41886,999,53060,.36820573E-3,.37721E-3,0
CYGFM01,2016-078D,2026-06-26T09:32:53.515968,15.57732603,.00078515,34.9382,200.5628,229.8106,130.1932,0,U,41887,999,53014,.30490634E-3,.23434E-3,0
CYGFM08,2016-078E,2026-06-26T09:43:43.968864,15.60462405,.00091548,34.9412,179.8462,258.1098,101.8601,0,U,41888,999,53041,.32942184E-3,.28134E-3,0
CYGFM07,2016-078G,2026-06-26T08:44:04.969824,15.60561439,.0007677,34.9427,168.4558,271.2231,88.7615,0,U,41890,999,53043,.33828159E-3,.28988E-3,0
CYGFM03,2016-078H,2026-06-26T09:34:30.676224,15.60555950,.00073157,34.9382,170.1571,260.2908,99.6991,0,U,41891,999,53041,.33322253E-3,.28542E-3,0
